{"type":"FeatureCollection","crs":{"type":"name","properties":{"name":"EPSG:4326"}},"features":[{"type":"Feature","id":329,"geometry":{"type":"Polygon","coordinates":[[[-76.3096122041666,36.8464469016625],[-76.309816472079,36.8464361351042],[-76.3098149566212,36.846331799262],[-76.3102011028359,36.8463281761377],[-76.3102023757487,36.846415786686],[-76.3116440091846,36.8463397881068],[-76.3134018639736,36.84644468394],[-76.3134146137625,36.8468431957848],[-76.3151234268252,36.8467973412712],[-76.3151141544148,36.8478547607666],[-76.3143779778529,36.8486336907057],[-76.3134431819851,36.8489751921873],[-76.3124523797526,36.84890009112],[-76.3116093126551,36.8492311616672],[-76.3095887024421,36.8496611277649],[-76.309638876944,36.8484228970682],[-76.3093369756349,36.8482620331454],[-76.3085562327535,36.8479834221378],[-76.3074350220912,36.8478445357079],[-76.3070006498204,36.8477864302619],[-76.3063180595618,36.8477614088916],[-76.3060004583965,36.84788409023],[-76.3034710055757,36.848695447993],[-76.3028336697462,36.8482520741178],[-76.3024406370465,36.8476245319957],[-76.3024486266626,36.8475244318763],[-76.3038558222839,36.8467408381095],[-76.304003483757,36.8459861962815],[-76.3038944722989,36.8451797571324],[-76.3034775462093,36.8448412400549],[-76.302869529594,36.8441217952591],[-76.3025645515551,36.8435931959607],[-76.3031632050301,36.8434783782625],[-76.3032118712606,36.8430129023142],[-76.304578844815,36.8429527622881],[-76.3057281520844,36.8423034281575],[-76.3070070152825,36.8426000059882],[-76.3078211817807,36.8427768962036],[-76.3083951621281,36.8428574310298],[-76.3085143568882,36.8428741556691],[-76.3086147750623,36.8428882447948],[-76.3095639511611,36.8430213250054],[-76.3096080629331,36.8461529439569],[-76.3096084653784,36.84618150272],[-76.3096122041666,36.8464469016625]]]},"properties":{"OBJECTID":329,"SE_ANNO_CAD_DATA":"","COUNTRYNAME":"USA","FEATUREDESCRIPTION":"NA","FEATURENAME":"NAVMEDCEN Portsmouth VA","ISCUI":"No","ISFIRRMASITE":"No","ISJOINTBASE":"No","MEDIAID":"NA","MIRTALOCATIONSIDPK":" ","SDSID":"7d7e44c7-47ad-4fb2-84e1-dd138acdfb6c","SITENAME":"NAVMEDCEN Portsmouth VA","SITEOPERATIONALSTATUS":"Act","SITEREPORTINGCOMPONENT":"USN","STATENAMECODE":"VA","Shape__Area":736520.01953125,"Shape__Length":4684.246201271395}},{"type":"Feature","id":432,"geometry":{"type":"Polygon","coordinates":[[[-77.0840578433413,39.0051278722481],[-77.0837680099997,39.004824385014],[-77.0834920044253,39.004534513176],[-77.0834826224205,39.0043069828743],[-77.0834782871509,39.0041709368032],[-77.0834612613813,39.0037049857879],[-77.0834418910089,39.0032939378678],[-77.083426539699,39.002965555761],[-77.0834184539631,39.0028010688421],[-77.0834042821412,39.0025002781498],[-77.0833988087061,39.0023911940602],[-77.0833893799889,39.0021716480239],[-77.083378541815,39.0019326507624],[-77.0833718179251,39.0017962049983],[-77.0833635660009,39.0016339451111],[-77.0833515690003,39.0014184659972],[-77.0833412204082,39.0012258982009],[-77.0833121158913,39.0006290346715],[-77.0833073512271,39.0005216566871],[-77.0832972218239,39.0003271240378],[-77.0832971858913,39.0003263889186],[-77.0848275135885,38.9998421971426],[-77.0850057779685,38.9997857929178],[-77.0860424338063,38.9994577798943],[-77.0865367614358,38.9993013649654],[-77.0867057857448,38.9992478812834],[-77.0874295772338,38.9991327421793],[-77.08756688203,38.999117707934],[-77.0877027845561,38.9990962753152],[-77.0878367952302,38.9990685183189],[-77.0879557249873,38.9990381188837],[-77.0880723712269,38.9990027396605],[-77.088186391691,38.9989624839654],[-77.0882974513079,38.9989174697745],[-77.0884000919139,38.99887033323],[-77.0884994842119,38.9988191321196],[-77.0885694081753,38.9987795199997],[-77.0886700886574,38.9987166899939],[-77.0887661230528,38.9986495761735],[-77.088857210426,38.998578387269],[-77.0889430669093,38.9985033438792],[-77.0891325269926,38.998328142028],[-77.0892868458803,38.998185436771],[-77.0893861510417,38.9980936040741],[-77.0902614119624,38.9976442477446],[-77.0904329596389,38.9975604227804],[-77.0906091623853,38.9974826988233],[-77.0907896617736,38.9974112329765],[-77.0909740948846,38.9973461676812],[-77.0911620889174,38.9972876369997],[-77.0913532629863,38.997235756841],[-77.091547231714,38.9971906340366],[-77.0917436034351,38.9971523579627],[-77.0919419801959,38.9971210061251],[-77.0921419613478,38.9970966427629],[-77.0923431444456,38.9970793181501],[-77.0925451207558,38.9970690651051],[-77.0927474851381,38.9970659052735],[-77.093348018787,38.9970670600154],[-77.0934824660424,38.9970681219031],[-77.0936964878622,38.997067728844],[-77.0944314669698,38.9970692591911],[-77.0958366431782,38.9970718130274],[-77.0960328783554,38.99707218584],[-77.0960820781852,38.9970723966817],[-77.0960971384409,38.9970724211169],[-77.096224265325,38.9970726291659],[-77.0962703551873,38.9970727038681],[-77.09629734507,38.9970727478516],[-77.0964617205973,38.9971182267879],[-77.0966457234153,38.998839595813],[-77.0961407157154,38.998868169017],[-77.0961261189903,38.9989270160415],[-77.0961661281564,38.9993212448837],[-77.0961847673003,38.9993792230599],[-77.0962745215736,38.9993920176546],[-77.0963848912843,38.9993846873092],[-77.0964692933952,38.9993715387621],[-77.0965634269555,38.9993548709471],[-77.0965812971414,38.9993517070289],[-77.0965871990728,38.9993803051586],[-77.096702539162,38.9993711059226],[-77.0968510360684,39.0007602349594],[-77.0970627546078,39.0035267761933],[-77.0971425582427,39.0045694973139],[-77.0971396297349,39.0045699077832],[-77.0971099170585,39.004574078095],[-77.0967094993089,39.0046302767585],[-77.0966884329171,39.0046333797081],[-77.0966551350645,39.0046380351793],[-77.0963477369642,39.0046805710515],[-77.0961739578724,39.0047048312795],[-77.0951491229654,39.0048552070903],[-77.0948420258007,39.0049005309385],[-77.0942472090303,39.0049873391471],[-77.0942155110771,39.0049920678927],[-77.0932087610534,39.0051400780272],[-77.0931114402704,39.0051387112034],[-77.0929671331066,39.0051362442191],[-77.0929338307624,39.0051363258934],[-77.092763768001,39.00513152386],[-77.0924097051166,39.0051259420804],[-77.092374794788,39.0051258499349],[-77.0904260776455,39.0051926406881],[-77.0903185484077,39.0051972730861],[-77.0902652190226,39.0052396718003],[-77.0885620967872,39.0065887400053],[-77.0883774274193,39.006735176174],[-77.0881829951609,39.0068902930408],[-77.0880139528857,39.0070248798383],[-77.0879883976125,39.0070452259797],[-77.0879635816527,39.0070651058161],[-77.0876420593412,39.0073215530423],[-77.0875206196912,39.0074154441749],[-77.0874357648295,39.007380665973],[-77.0870094172091,39.0071998067614],[-77.0867062609535,39.0071163072417],[-77.0863084788609,39.0070106947064],[-77.085973467447,39.0067964298314],[-77.0855653771865,39.0065405712582],[-77.0855120819373,39.0065395611688],[-77.085392100253,39.0064604230364],[-77.0853990056026,39.006445589295],[-77.0853828844365,39.0064355686646],[-77.0851718791594,39.0062960789689],[-77.0849668386958,39.0060816569595],[-77.0847177161046,39.0058200632942],[-77.0845331383649,39.0056260129179],[-77.0840578433413,39.0051278722481]]]},"properties":{"OBJECTID":432,"SE_ANNO_CAD_DATA":"","COUNTRYNAME":"USA","FEATUREDESCRIPTION":"NA","FEATURENAME":"NAVSUPPACT Bethesda MD","ISCUI":"No","ISFIRRMASITE":"No","ISJOINTBASE":"No","MEDIAID":"NA","MIRTALOCATIONSIDPK":" ","SDSID":"a0ce61ff-d707-4940-baaf-2e82ce7a6c1c","SITENAME":"NAVSUPPACT Bethesda MD","SITEOPERATIONALSTATUS":"Act","SITEREPORTINGCOMPONENT":"USN","STATENAMECODE":"MD","Shape__Area":1596223.3515625,"Shape__Length":5217.115288415981}}]}